STARLINK-1434           
1 45712U 20035BH  26068.24137979  .00054112  00000+0  20295-2 0  9995
2 45712  53.0547  22.1128 0005343  88.0400 272.1210 15.26724568319325
STARLINK-34038          
1 63911U 25095X   26068.33763224  .00022448  00000+0  82242-3 0  9993
2 63911  42.9999 178.2312 0000730 258.9451 101.1318 15.27594626 47724
